[{"OBJECT_NAME":"TIANMU-1 07","OBJECT_ID":"2023-101A","EPOCH":"2026-03-06T13:47:20.454720","MEAN_MOTION":15.29118809,"ECCENTRICITY":0.00046097,"INCLINATION":97.2728,"RA_OF_ASC_NODE":118.5929,"ARG_OF_PERICENTER":142.4105,"MEAN_ANOMALY":217.7458,"EPHEMERIS_TYPE":0,"CLASSIFICATION_TYPE":"U","NORAD_CAT_ID":57399,"ELEMENT_SET_NO":999,"REV_AT_EPOCH":14596,"BSTAR":0.00029794732,"MEAN_MOTION_DOT":8.352e-5,"MEAN_MOTION_DDOT":0},{"OBJECT_NAME":"STARLINK-31955","OBJECT_ID":"2024-106T","EPOCH":"2026-03-09T02:13:08.024736","MEAN_MOTION":15.27582623,"ECCENTRICITY":0.00015786,"INCLINATION":43.0036,"RA_OF_ASC_NODE":335.711,"ARG_OF_PERICENTER":261.2872,"MEAN_ANOMALY":98.7801,"EPHEMERIS_TYPE":0,"CLASSIFICATION_TYPE":"U","NORAD_CAT_ID":59939,"ELEMENT_SET_NO":999,"REV_AT_EPOCH":10047,"BSTAR":-3.5367692e-5,"MEAN_MOTION_DOT":-1.235e-5,"MEAN_MOTION_DDOT":0}]
